43249,IRIDIUM 144,2018,100.4,860.0,+,86.4,Active,1,LEO,USA,USA,Commercial/Government,Communications,Falcon,1 43249U 18030A   24362.50137878  .00000147  00000+0  45477-4 0  9992,2 43249  86.3990 154.7605 0001806  97.6144 262.5256 14.34218839353230,14.34218839,0.0001806,LEO
43250,IRIDIUM 149,2018,100.4,860.0,+,86.4,Active,1,LEO,USA,USA,Commercial/Government,Communications,Falcon,1 43250U 18030B   24362.50772388  .00000186  00000+0  59420-4 0  9991,2 43250  86.3991 154.7311 0002075  97.1966 262.9466 14.34218298353239,14.34218298,0.0002075,LEO
43251,IRIDIUM 157,2018,100.4,860.0,+,86.4,Active,1,LEO,USA,USA,Commercial/Government,Communications,Falcon,1 43251U 18030C   24362.45697672  .00000469  00000+0  16040-3 0  9992,2 43251  86.3991 154.7933 0002216  92.7428 267.4021 14.34215929353203,14.34215929,0.0002216,LEO
43252,IRIDIUM 140,2018,100.4,860.0,+,86.4,Active,1,LEO,USA,USA,Commercial/Government,Communications,Falcon,1 43252U 18030D   24362.40623195  .00000775  00000+0  26958-3 0  9996,2 43252  86.3992 154.8287 0001914  93.5123 266.6292 14.34223431353256,14.34223431,0.0001914,LEO
43253,IRIDIUM 145,2018,100.4,860.0,+,86.4,Active,1,LEO,USA,USA,Commercial/Government,Communications,Falcon,1 43253U 18030E   24362.46331575  .00000830  00000+0  28920-3 0  9994,2 43253  86.3991 154.7779 0001819 104.3843 255.7554 14.34224232353198,14.34224232,0.0001819,LEO
43254,IRIDIUM 146,2018,100.4,860.0,+,86.4,Active,1,LEO,USA,USA,Commercial/Government,Communications,Falcon,1 43254U 18030F   24362.51406501  .00000270  00000+0  89504-4 0  9997,2 43254  86.3990 154.7708 0001914 103.1080 257.0329 14.34218805353213,14.34218805,0.0001914,LEO
43255,IRIDIUM 148,2018,100.4,860.0,+,86.4,Active,1,LEO,USA,USA,Commercial/Government,Communications,Falcon,1 43255U 18030G   24362.48234983  .00000387  00000+0  13113-3 0  9998,2 43255  86.3992 154.8190 0002059  99.0708 261.0721 14.34220214353244,14.34220214,0.0002059,LEO
43256,IRIDIUM 142,2018,100.4,860.0,+,86.4,Active,1,LEO,USA,USA,Commercial/Government,Communications,Falcon,1 43256U 18030H   24362.52040681 -.00000145  00000+0 -58808-4 0  9999,2 43256  86.3995 154.7119 0001866 108.0874 252.0525 14.34219427353211,14.34219427,0.0001866,LEO
